CHINASAT 2A (ZX 2A)     
1 38352U 12028A   19005.53417435 -.00000293  00000-0  00000+0 0  9995
2 38352   0.0530 128.5999 0004846 223.8442  42.9343  1.00274153 24375
INTELSAT 19 (IS-19)     
1 38356U 12030A   19004.25110095 -.00000057  00000-0  00000-0 0  9991
2 38356   0.0151   2.9044 0002660 286.9660  70.0883  1.00272724 23190
ECHOSTAR 17             
1 38551U 12035A   19005.00770171 -.00000075  00000-0  00000+0 0  9993
2 38551   0.0260  30.0669 0002062 249.1621  80.7477  1.00270381 23854
METEOSAT-10 (MSG-3)     
1 38552U 12035B   19004.68547778  .00000060  00000-0  00000+0 0  9995
2 38552   0.9924   4.9021 0001030 268.7641  86.3099  1.00269750 23946
SES-5                   
1 38652U 12036A   19005.25071341  .00000034  00000-0  00000+0 0  9990
2 38652   0.0240  62.1337 0001806 228.4309 269.2167  1.00270361 23791
TIANLIAN 1-03           
1 38730U 12040A   19005.24474913  .00000073  00000-0  00000+0 0  9996
2 38730   0.0827 259.5219 0002600 261.5592  42.1441  1.00272513 23711
INTELSAT 20 (IS-20)     
1 38740U 12043A   19004.52118424 -.00000024  00000-0  00000+0 0  9999
2 38740   0.0109   5.1685 0004020 182.6819 172.1432  1.00270036 23554
HYLAS 2                 
1 38741U 12043B   19005.28271019  .00000155  00000-0  00000+0 0  9998
2 38741   0.0214 291.9331 0001486 354.5056 310.9199  1.00272133 23575
INTELSAT 21 (IS-21)     
1 38749U 12045A   19004.87166048 -.00000284  00000-0  00000-0 0  9992
2 38749   0.0177  39.4192 0001714 248.4776  72.0714  1.00272553 23255
ASTRA 2F                
1 38778U 12051A   19004.63279383  .00000150  00000-0  00000+0 0  9992
2 38778   0.0925 244.3153 0003979   3.2423 112.3873  1.00268398 23013
GSAT-10                 
1 38779U 12051B   19004.48111007 -.00000165  00000-0  00000-0 0  9992
2 38779   0.0413 100.2814 0000712 165.1234  94.5743  1.00271799 22846
INTELSAT 23 (IS-23)     
1 38867U 12057A   19004.85783290 -.00000285  00000-0  00000+0 0  9998
2 38867   0.0242  21.3367 0001465 271.9074  66.7405  1.00270093 22835
BEIDOU 16               
1 38953U 12059A   18355.78521527 -.00000162  00000-0  00000-0 0  9994
2 38953   1.4855  82.7267 0007897 201.6625 172.5122  1.00268185 22632
LUCH 5B                 
1 38977U 12061A   19005.43451948 -.00000135  00000-0  00000+0 0  9996
2 38977   4.6762  70.9213 0004907 263.9509 269.9924  1.00272246 22905
YAMAL 300K              
1 38978U 12061B   19004.88229668  .00000071  00000-0  00000-0 0  9996
2 38978   0.0225  54.9737 0000649  19.9107 169.8609  1.00271501 22366
STAR ONE C3             
1 38991U 12062A   19004.82278176 -.00000249  00000-0  00000+0 0  9991
2 38991   0.0388  96.2170 0002150 212.7934  16.3126  1.00273151 22577
EUTELSAT 21B            
1 38992U 12062B   19004.65108924  .00000130  00000-0  00000-0 0  9995
2 38992   0.0625  11.4631 0002909 272.7706  75.7210  1.00268688 22570
ECHOSTAR 16             
1 39008U 12065A   19004.88137588 -.00000282  00000-0  00000+0 0  9998
2 39008   0.0170  42.3538 0001983 235.2521  82.3586  1.00272210 22535
CHINASAT 12 (ZX 12)     
1 39017U 12067A   19005.50934951 -.00000206  00000-0  00000+0 0  9995
2 39017   0.0310  58.7279 0002793 221.4182  95.4976  1.00269915 22440
EUTELSAT 70B            
1 39020U 12069A   19004.51551486 -.00000043  00000-0  00000+0 0  9998
2 39020   0.0616 354.8999 0003395 267.1523  97.8967  1.00270635 22332
YAMAL 402               
1 39022U 12070A   19004.55886888  .00000086  00000-0  00000+0 0  9999
2 39022   0.0168  68.7220 0002661 222.9669  68.2698  1.00270378 22325
SKYNET 5D               
1 39034U 12075A   19005.11800681  .00000100  00000-0  00000+0 0  9994
2 39034   0.0733 354.6419 0003781 284.2445 280.7786  1.00268201 22242
MEXSAT 3                
1 39035U 12075B   19005.02900879 -.00000025  00000-0  00000+0 0  9992
2 39035   0.0154  28.9826 0001910 260.8928  70.1041  1.00270810 22201
TDRS 11                 
1 39070U 13004A   19004.11164133  .00000084  00000-0  00000-0 0  9993
2 39070   4.6100 329.1105 0004718 308.2278  51.9023  1.00275469 19412
AMAZONAS 3              
1 39078U 13006A   19004.87994413 -.00000282  00000-0  00000+0 0  9998
2 39078   0.0625 229.0877 0003745  35.6250  95.2314  1.00274613 21693
AZERSPACE 1             
1 39079U 13006B   19004.58353157  .00000133  00000-0  00000+0 0  9995
2 39079   0.0191 352.7398 0001775 336.9540  30.2833  1.00275612 21655
EUTELSAT 117 WEST A     
1 39122U 13012A   19004.03724051 -.00000013  00000-0  00000-0 0  9995
2 39122   0.0175  52.5759 0002597 233.7693  73.6137  1.00270563 21162
ANIK G1                 
1 39127U 13014A   19005.11155302 -.00000074  00000-0  00000+0 0  9995
2 39127   0.0139 236.4063 0003149  35.8369 125.0103  1.00271599 20987
CHINASAT 11 (ZX 11)     
1 39157U 13020A   19005.53417435 -.00000290  00000-0  00000+0 0  9999
2 39157   0.0274 118.6544 0003845 172.4450 104.0457  1.00270284 20885
EUTELSAT 7B             
1 39163U 13022A   19004.69160508  .00000048  00000-0  00000-0 0  9991
2 39163   0.0398   3.5110 0004539 329.8718  26.5809  1.00270613 20713
WGS F5 (USA 243)        
1 39168U 13024A   19004.85656747 -.00000284  00000-0  00000+0 0  9993
2 39168   0.0176  33.5420 0000561  19.5046 306.9456  1.00272164 20555
SES-6                   
1 39172U 13026A   19004.82323474 -.00000261  00000-0  00000-0 0  9991
2 39172   0.0274 332.2772 0001497 301.9327  85.7602  1.00270965 20447
IRNSS-1A                
1 39199U 13034A   19004.85047268  .00000072  00000-0  00000+0 0  9994
2 39199  29.8155 105.4193 0022229 180.9679 178.9512  1.00275506 20363
MUOS-2                  
1 39206U 13036A   19004.94115426 -.00000123  00000-0  00000+0 0  9995
2 39206   3.0375 342.8930 0058074 356.3688   3.8213  1.00271167 20039
ALPHASAT                
1 39215U 13038A   19004.70982499  .00000135  00000-0  00000-0 0  9996
2 39215   2.1036  24.4682 0001753 257.3173 102.6098  1.00268628 16774
INSAT-3D                
1 39216U 13038B   19005.48096873 -.00000155  00000-0  00000+0 0  9997
2 39216   0.0888 275.8410 0000622  19.8436  64.2957  1.00272248 20039
WGS F6 (USA 244)        
1 39222U 13041A   19005.54108705  .00000089  00000-0  00000+0 0  9998
2 39222   0.0180  44.9781 0000346  12.9423 106.5094  1.00272381 19791
EUTELSAT 25B            
1 39233U 13044A   19004.64038651  .00000143  00000-0  00000-0 0  9997
2 39233   0.0462  29.2843 0001469 257.0732  73.6135  1.00273983 19365
GSAT-7                  
1 39234U 13044B   19005.50311107 -.00000076  00000-0  00000+0 0  9999
2 39234   0.0448 100.7008 0009468 174.2412  84.9360  1.00271786 19634
AMOS-4                  
1 39237U 13045A   19004.53101208  .00000007  00000-0  00000-0 0  9998
2 39237   0.0405 276.4941 0002205  95.0839 348.4144  1.00270643 19686
AEHF-3 (USA 246)        
1 39256U 13050A   19004.15012102 -.00000180  00000-0  00000-0 0  9990
2 39256   1.4604 308.8969 0006410   9.0186 351.8453  1.00273571 18396
ASTRA 2E                
1 39285U 13056A   19004.63208377  .00000150  00000-0  00000-0 0  9998
2 39285   0.0550  28.0451 0002470 254.1432  77.7712  1.00272516 19198
SIRIUS FM-6             
1 39360U 13058A   19005.03273454 -.00000017  00000-0  00000+0 0  9999
2 39360   0.0209  14.1227 0000531 129.8948 215.9861  1.00268295 19073
RADUGA-1M 3             
1 39375U 13062A   19005.14688363 -.00000038  00000-0  00000+0 0  9994
2 39375   0.0370 142.3754 0002340 163.7741 281.1614  1.00271727 18855
SES-8                   
1 39460U 13071A   19004.44789209 -.00000269  00000-0  00000+0 0  9998
2 39460   0.0250 288.1290 0000405 335.1968  96.6570  1.00271536 18596
INMARSAT 5-F1           
1 39476U 13073A   19005.53485935  .00000029  00000-0  00000+0 0  9990
2 39476   0.0237  28.0426 0000143 267.2794  64.6765  1.00270231 18661
TKSAT-1 (TUPAC KATARI)  
1 39481U 13075A   19005.18665951 -.00000194  00000-0  00000+0 0  9991
2 39481   0.0520 127.6797 0002031 179.9858 136.8354  1.00271465 18573
EXPRESS-AM5             
1 39487U 13077A   19005.51981785 -.00000280  00000-0  00000+0 0  9998
2 39487   0.0543 207.4228 0000765 216.8749   7.6643  1.00270132 19108
GSAT-14                 
1 39498U 14001A   19004.50592217 -.00000077  00000-0  00000-0 0  9999
2 39498   0.0162  63.4423 0005042 209.9421  86.5449  1.00271700 18153
THAICOM 6               
1 39500U 14002A   19005.50751756 -.00000120  00000-0  00000+0 0  9998
2 39500   0.0533 132.7375 0000811 101.2242 131.9777  1.00274409 18258
TDRS 12                 
1 39504U 14004A   19004.75975928 -.00000265  00000-0  00000+0 0  9999
2 39504   5.3188 336.2355 0003949 293.2762  66.8174  1.00281018 18171
ABS-2                   
1 39508U 14006A   19004.50342927 -.00000086  00000-0  00000+0 0  9996
2 39508   0.0217 327.3433 0003227 350.6721  41.9471  1.00271848 18040
ATHENA-FIDUS            
1 39509U 14006B   19004.60627214  .00000154  00000-0  00000+0 0  9998
2 39509   0.0209   7.4344 0000888 273.2798  79.2758  1.00267975 18221
TURKSAT 4A              
1 39522U 14007A   19004.59458646  .00000146  00000-0  00000-0 0  9995
2 39522   0.0566 269.1130 0004857   7.1271  83.6917  1.00272547 17712
EXPRESS-AT1             
1 39612U 14010A   19005.43127323  .00000079  00000-0  00000+0 0  9992
2 39612   0.0594 215.0699 0000598 107.7486 353.1616  1.00272787 17779
EXPRESS-AT2             
1 39613U 14010B   19004.11722979 -.00000282  00000-0  00000+0 0  9992
2 39613   0.0476 206.1078 0000661 254.8513 184.5180  1.00271119 17597
AMAZONAS 4A             
1 39616U 14011A   19003.91885903 -.00000253  00000-0  00000+0 0  9998
2 39616   0.0787  77.0602 0002938 207.0580  75.8366  1.00277674 17585
ASTRA 5B                
1 39617U 14011B   19005.49818331  .00000155  00000-0  00000+0 0  9995
2 39617   0.0333  54.3219 0003291 231.0282  30.2582  1.00272144 17597
IRNSS-1B                
1 39635U 14017A   19004.35335594  .00000087  00000-0  00000+0 0  9994
2 39635  28.8247 285.8538 0017231 185.0497 174.9883  1.00272881 17520
